[{"OBJECT_NAME":"ONEWEB-0290","OBJECT_ID":"2021-075F","EPOCH":"2026-03-09T22:19:04.093536","MEAN_MOTION":13.17650403,"ECCENTRICITY":0.00023815,"INCLINATION":87.9158,"RA_OF_ASC_NODE":25.5567,"ARG_OF_PERICENTER":88.4079,"MEAN_ANOMALY":271.7325,"EPHEMERIS_TYPE":0,"CLASSIFICATION_TYPE":"U","NORAD_CAT_ID":49080,"ELEMENT_SET_NO":999,"REV_AT_EPOCH":22054,"BSTAR":0.00022685575,"MEAN_MOTION_DOT":1.01e-6,"MEAN_MOTION_DDOT":0},{"OBJECT_NAME":"FENGYUN 1C DEB","OBJECT_ID":"1999-025DXN","EPOCH":"2026-03-08T03:45:32.732640","MEAN_MOTION":13.59419176,"ECCENTRICITY":0.02822489,"INCLINATION":98.4265,"RA_OF_ASC_NODE":198.9268,"ARG_OF_PERICENTER":315.4789,"MEAN_ANOMALY":42.3984,"EPHEMERIS_TYPE":0,"CLASSIFICATION_TYPE":"U","NORAD_CAT_ID":36644,"ELEMENT_SET_NO":999,"REV_AT_EPOCH":62728,"BSTAR":0.0015979913,"MEAN_MOTION_DOT":1.498e-5,"MEAN_MOTION_DDOT":0}]
